[{"OBJECT_NAME":"KINEIS-5E","OBJECT_ID":"2024-219C","EPOCH":"2026-03-05T04:43:58.169856","MEAN_MOTION":14.72325368,"ECCENTRICITY":0.0002867,"INCLINATION":97.9637,"RA_OF_ASC_NODE":225.916,"ARG_OF_PERICENTER":138.181,"MEAN_ANOMALY":221.9618,"EPHEMERIS_TYPE":0,"CLASSIFICATION_TYPE":"U","NORAD_CAT_ID":62083,"ELEMENT_SET_NO":999,"REV_AT_EPOCH":6846,"BSTAR":0.00025798352,"MEAN_MOTION_DOT":1.583e-5,"MEAN_MOTION_DDOT":0},{"OBJECT_NAME":"KINEIS-5A","OBJECT_ID":"2024-219D","EPOCH":"2026-03-05T16:54:40.356864","MEAN_MOTION":14.72175559,"ECCENTRICITY":0.000157,"INCLINATION":97.9776,"RA_OF_ASC_NODE":226.5129,"ARG_OF_PERICENTER":217.3811,"MEAN_ANOMALY":142.7287,"EPHEMERIS_TYPE":0,"CLASSIFICATION_TYPE":"U","NORAD_CAT_ID":62084,"ELEMENT_SET_NO":999,"REV_AT_EPOCH":6854,"BSTAR":0.00020024,"MEAN_MOTION_DOT":1.213e-5,"MEAN_MOTION_DDOT":0},{"OBJECT_NAME":"KINEIS-5B","OBJECT_ID":"2024-219E","EPOCH":"2026-03-05T18:02:51.657792","MEAN_MOTION":14.78054919,"ECCENTRICITY":0.0001239,"INCLINATION":97.9936,"RA_OF_ASC_NODE":229.2654,"ARG_OF_PERICENTER":206.0524,"MEAN_ANOMALY":154.0624,"EPHEMERIS_TYPE":0,"CLASSIFICATION_TYPE":"U","NORAD_CAT_ID":62085,"ELEMENT_SET_NO":999,"REV_AT_EPOCH":6872,"BSTAR":0.00037861,"MEAN_MOTION_DOT":2.684e-5,"MEAN_MOTION_DDOT":0},{"OBJECT_NAME":"KINEIS-2C","OBJECT_ID":"2025-028B","EPOCH":"2026-03-05T17:13:08.316768","MEAN_MOTION":14.72303158,"ECCENTRICITY":0.0001226,"INCLINATION":98.0282,"RA_OF_ASC_NODE":119.9338,"ARG_OF_PERICENTER":39.0962,"MEAN_ANOMALY":321.0333,"EPHEMERIS_TYPE":0,"CLASSIFICATION_TYPE":"U","NORAD_CAT_ID":62929,"ELEMENT_SET_NO":999,"REV_AT_EPOCH":5738,"BSTAR":0.00028657,"MEAN_MOTION_DOT":1.762e-5,"MEAN_MOTION_DDOT":0},{"OBJECT_NAME":"KINEIS-2D","OBJECT_ID":"2025-028C","EPOCH":"2026-03-05T16:53:08.233728","MEAN_MOTION":14.7532512,"ECCENTRICITY":0.0003841,"INCLINATION":97.9414,"RA_OF_ASC_NODE":119.1069,"ARG_OF_PERICENTER":156.1857,"MEAN_ANOMALY":203.9531,"EPHEMERIS_TYPE":0,"CLASSIFICATION_TYPE":"U","NORAD_CAT_ID":62930,"ELEMENT_SET_NO":999,"REV_AT_EPOCH":5745,"BSTAR":0.00038443,"MEAN_MOTION_DOT":2.556e-5,"MEAN_MOTION_DDOT":0},{"OBJECT_NAME":"KINEIS-2E","OBJECT_ID":"2025-028D","EPOCH":"2026-03-05T16:47:24.782496","MEAN_MOTION":14.76700341,"ECCENTRICITY":0.0001857,"INCLINATION":97.9089,"RA_OF_ASC_NODE":118.4964,"ARG_OF_PERICENTER":113.7535,"MEAN_ANOMALY":246.387,"EPHEMERIS_TYPE":0,"CLASSIFICATION_TYPE":"U","NORAD_CAT_ID":62931,"ELEMENT_SET_NO":999,"REV_AT_EPOCH":5750,"BSTAR":0.00029711,"MEAN_MOTION_DOT":2.029e-5,"MEAN_MOTION_DDOT":0},{"OBJECT_NAME":"KINEIS-2A","OBJECT_ID":"2025-028E","EPOCH":"2026-03-05T16:15:22.867200","MEAN_MOTION":14.72087788,"ECCENTRICITY":0.0003463,"INCLINATION":98.0718,"RA_OF_ASC_NODE":120.2104,"ARG_OF_PERICENTER":205.3732,"MEAN_ANOMALY":154.7306,"EPHEMERIS_TYPE":0,"CLASSIFICATION_TYPE":"U","NORAD_CAT_ID":62932,"ELEMENT_SET_NO":999,"REV_AT_EPOCH":5737,"BSTAR":0.00026515,"MEAN_MOTION_DOT":1.618e-5,"MEAN_MOTION_DDOT":0},{"OBJECT_NAME":"KINEIS-2B","OBJECT_ID":"2025-028G","EPOCH":"2026-03-05T16:49:02.224416","MEAN_MOTION":14.73101513,"ECCENTRICITY":0.0004866,"INCLINATION":97.9801,"RA_OF_ASC_NODE":119.3997,"ARG_OF_PERICENTER":117.9891,"MEAN_ANOMALY":242.181,"EPHEMERIS_TYPE":0,"CLASSIFICATION_TYPE":"U","NORAD_CAT_ID":62934,"ELEMENT_SET_NO":999,"REV_AT_EPOCH":5742,"BSTAR":0.00029514,"MEAN_MOTION_DOT":1.851e-5,"MEAN_MOTION_DDOT":0},{"OBJECT_NAME":"KINEIS-4E","OBJECT_ID":"2025-056A","EPOCH":"2026-03-05T17:52:15.682080","MEAN_MOTION":14.72343637,"ECCENTRICITY":7.15e-5,"INCLINATION":97.9938,"RA_OF_ASC_NODE":191.1174,"ARG_OF_PERICENTER":186.4756,"MEAN_ANOMALY":173.6442,"EPHEMERIS_TYPE":0,"CLASSIFICATION_TYPE":"U","NORAD_CAT_ID":63300,"ELEMENT_SET_NO":999,"REV_AT_EPOCH":5190,"BSTAR":0.00055178,"MEAN_MOTION_DOT":3.442e-5,"MEAN_MOTION_DDOT":0},{"OBJECT_NAME":"KINEIS-4C","OBJECT_ID":"2025-056B","EPOCH":"2026-03-05T18:10:07.870656","MEAN_MOTION":14.72340403,"ECCENTRICITY":8.24e-5,"INCLINATION":97.9982,"RA_OF_ASC_NODE":191.2927,"ARG_OF_PERICENTER":47.8689,"MEAN_ANOMALY":312.2588,"EPHEMERIS_TYPE":0,"CLASSIFICATION_TYPE":"U","NORAD_CAT_ID":63301,"ELEMENT_SET_NO":999,"REV_AT_EPOCH":5191,"BSTAR":0.00050344,"MEAN_MOTION_DOT":3.136e-5,"MEAN_MOTION_DDOT":0},{"OBJECT_NAME":"KINEIS-4D","OBJECT_ID":"2025-056C","EPOCH":"2026-03-05T16:39:32.063040","MEAN_MOTION":14.72335541,"ECCENTRICITY":5.67e-5,"INCLINATION":97.9963,"RA_OF_ASC_NODE":191.21,"ARG_OF_PERICENTER":318.6474,"MEAN_ANOMALY":41.469,"EPHEMERIS_TYPE":0,"CLASSIFICATION_TYPE":"U","NORAD_CAT_ID":63302,"ELEMENT_SET_NO":999,"REV_AT_EPOCH":5190,"BSTAR":0.00056495,"MEAN_MOTION_DOT":3.525e-5,"MEAN_MOTION_DDOT":0},{"OBJECT_NAME":"KINEIS-4A","OBJECT_ID":"2025-056D","EPOCH":"2026-03-05T19:05:12.232608","MEAN_MOTION":14.72294888,"ECCENTRICITY":0.0001652,"INCLINATION":97.9934,"RA_OF_ASC_NODE":191.2359,"ARG_OF_PERICENTER":258.0464,"MEAN_ANOMALY":102.0559,"EPHEMERIS_TYPE":0,"CLASSIFICATION_TYPE":"U","NORAD_CAT_ID":63303,"ELEMENT_SET_NO":999,"REV_AT_EPOCH":5191,"BSTAR":-0.00015313,"MEAN_MOTION_DOT":-1.016e-5,"MEAN_MOTION_DDOT":0},{"OBJECT_NAME":"KINEIS-4B","OBJECT_ID":"2025-056E","EPOCH":"2026-03-05T18:40:50.149344","MEAN_MOTION":14.72284518,"ECCENTRICITY":0.0002223,"INCLINATION":97.9936,"RA_OF_ASC_NODE":191.2647,"ARG_OF_PERICENTER":202.4435,"MEAN_ANOMALY":157.6676,"EPHEMERIS_TYPE":0,"CLASSIFICATION_TYPE":"U","NORAD_CAT_ID":63304,"ELEMENT_SET_NO":999,"REV_AT_EPOCH":5190,"BSTAR":0.00045812,"MEAN_MOTION_DOT":2.846e-5,"MEAN_MOTION_DDOT":0}]
