KINEIS-5E               
1 62083U 24219C   26064.19720104  .00001583  00000+0  25798-3 0  9999
2 62083  97.9637 225.9160 0002867 138.1810 221.9618 14.72325368 68466
KINEIS-5A               
1 62084U 24219D   26064.70463376  .00001213  00000+0  20024-3 0  9999
2 62084  97.9776 226.5129 0001570 217.3811 142.7287 14.72175559 68540
KINEIS-5B               
1 62085U 24219E   26064.75198678  .00002684  00000+0  37861-3 0  9995
2 62085  97.9936 229.2654 0001239 206.0524 154.0624 14.78054919 68723
KINEIS-2C               
1 62929U 25028B   26064.71745737  .00001762  00000+0  28657-3 0  9990
2 62929  98.0282 119.9338 0001226  39.0962 321.0333 14.72303158 57385
KINEIS-2D               
1 62930U 25028C   26064.70356752  .00002556  00000+0  38443-3 0  9992
2 62930  97.9414 119.1069 0003841 156.1857 203.9531 14.75325120 57456
KINEIS-2E               
1 62931U 25028D   26064.69959239  .00002029  00000+0  29711-3 0  9993
2 62931  97.9089 118.4964 0001857 113.7535 246.3870 14.76700341 57504
KINEIS-2A               
1 62932U 25028E   26064.67734800  .00001618  00000+0  26515-3 0  9999
2 62932  98.0718 120.2104 0003463 205.3732 154.7306 14.72087788 57375
KINEIS-2B               
1 62934U 25028G   26064.70072019  .00001851  00000+0  29514-3 0  9993
2 62934  97.9801 119.3997 0004866 117.9891 242.1810 14.73101513 57421
KINEIS-4E               
1 63300U 25056A   26064.74462595  .00003442  00000+0  55178-3 0  9991
2 63300  97.9938 191.1174 0000715 186.4756 173.6442 14.72343637 51905
KINEIS-4C               
1 63301U 25056B   26064.75703554  .00003136  00000+0  50344-3 0  9996
2 63301  97.9982 191.2927 0000824  47.8689 312.2588 14.72340403 51919
KINEIS-4D               
1 63302U 25056C   26064.69412110  .00003525  00000+0  56495-3 0  9990
2 63302  97.9963 191.2100 0000567 318.6474  41.4690 14.72335541 51908
KINEIS-4A               
1 63303U 25056D   26064.79528047 -.00001016  00000+0 -15313-3 0  9998
2 63303  97.9934 191.2359 0001652 258.0464 102.0559 14.72294888 51912
KINEIS-4B               
1 63304U 25056E   26064.77835821  .00002846  00000+0  45812-3 0  9995
2 63304  97.9936 191.2647 0002223 202.4435 157.6676 14.72284518 51905
